[{"OBJECT_NAME":"STARLINK-2672","OBJECT_ID":"2021-044N","EPOCH":"2026-03-09T10:42:01.252512","MEAN_MOTION":15.30208377,"ECCENTRICITY":0.00012776,"INCLINATION":53.1622,"RA_OF_ASC_NODE":115.0749,"ARG_OF_PERICENTER":98.077,"MEAN_ANOMALY":262.0376,"EPHEMERIS_TYPE":0,"CLASSIFICATION_TYPE":"U","NORAD_CAT_ID":48650,"ELEMENT_SET_NO":999,"REV_AT_EPOCH":26378,"BSTAR":0.00010744467,"MEAN_MOTION_DOT":2.825e-5,"MEAN_MOTION_DDOT":0},{"OBJECT_NAME":"CZ-2C DEB","OBJECT_ID":"2018-056F","EPOCH":"2026-03-09T10:57:26.102304","MEAN_MOTION":15.27739248,"ECCENTRICITY":0.00119172,"INCLINATION":98.1188,"RA_OF_ASC_NODE":250.032,"ARG_OF_PERICENTER":4.6998,"MEAN_ANOMALY":355.4349,"EPHEMERIS_TYPE":0,"CLASSIFICATION_TYPE":"U","NORAD_CAT_ID":43534,"ELEMENT_SET_NO":999,"REV_AT_EPOCH":41855,"BSTAR":0.00085537155,"MEAN_MOTION_DOT":0.00023193,"MEAN_MOTION_DDOT":0}]
